UNKNOWN                 
1 81323U          25351.34750656  .00016031  00000+0  20746-2 0  9990
2 81323  65.7516  16.0173 0345892 310.8711  46.2880 14.46955740113726
UNKNOWN                 
1 81329U          25354.40611012  .00000646  00000+0  26196-3 0  9999
2 81329  65.8189 112.6411 0831743  26.4858 337.6293 13.22157222579097
UNKNOWN                 
1 81343U          25354.29067872  .00003727  00000+0  26815-3 0  9992
2 81343  85.8708 195.3195 0006639 226.4198 133.6485 15.03908435455457
UNKNOWN                 
1 81359U          25352.11976840  .00000794  00000+0  80937-3 0  9998
2 81359  66.7995  39.1198 0117829 319.7720  39.4675 13.78840933606224
UNKNOWN                 
1 81366U          25351.91841686  .00000384  00000+0  16841-3 0  9990
2 81366  65.8847  59.7527 0709802  79.1225 288.8818 13.45150569 66656
UNKNOWN                 
1 81371U          25349.02062434  .00002320  00000+0  37982-3 0  9992
2 81371  98.8144  85.6265 0070126 358.1968   1.8972 14.70293799642172
UNKNOWN                 
1 81386U          25353.24930488  .00003818  00000+0  12698-2 0  9999
2 81386  71.0482 342.4203 0083632  74.2006 286.8330 14.36313735625176
UNKNOWN                 
1 81390U          25349.97583321 -.00000162  00000+0 -84958-3 0  9999
2 81390 103.1059 238.9104 0165329 138.8219 222.5446 12.35635489500496
UNKNOWN                 
1 81392U          25351.24986841  .00003083  00000+0  29127-2 0  9997
2 81392 100.3981 339.9260 0041759  17.5392 358.6710 13.81709218602808
UNKNOWN                 
1 81405U          25349.86722851  .00001596  00000+0  12249-2 0  9990
2 81405  99.4690  38.0911 0160982 215.3119 143.7291 13.88884005562237
UNKNOWN                 
1 81406U          25333.97576167  .00001902  00000+0  77531-3 0  9990
2 81406  65.8150 183.4971 0866885 325.4234  29.3212 13.12098095532000
UNKNOWN                 
1 81427U          25350.91181002  .00000774  00000+0  47360-3 0  9999
2 81427  98.7490 232.9090 0085345  26.7983 333.7558 14.06953641552359
